{
  "norad_id": 49495,
  "name": "GAOFEN-3 02",
  "history": [
    {
      "epoch": "2026-03-28T23:40:45.363360Z",
      "apogee_km": 752.4570439133422,
      "perigee_km": 749.9485144186447,
      "latitude_deg": -8.014002080163909e-05,
      "longitude_deg": -84.37501113536072,
      "height_km": 755.2805476530243,
      "semi_major_axis_km": 7129.339779165994,
      "eccentricity": 0.00017593,
      "inclination_deg": 98.4132,
      "raan_deg": 97.2132,
      "arg_perigee_deg": 206.5291,
      "mean_anomaly_deg": 153.5808,
      "mean_motion_rev_day": 14.42210961
    },
    {
      "epoch": "2026-03-29T04:40:28.186752Z",
      "apogee_km": 752.4396038654859,
      "perigee_km": 749.9614461417941,
      "latitude_deg": -1.1097074564772694e-05,
      "longitude_deg": -159.3032987526856,
      "height_km": 755.2714389803056,
      "semi_major_axis_km": 7129.33752500364,
      "eccentricity": 0.0001738,
      "inclination_deg": 98.4131,
      "raan_deg": 97.4185,
      "arg_perigee_deg": 205.8186,
      "mean_anomaly_deg": 154.2917,
      "mean_motion_rev_day": 14.42211645
    }
  ]
}